DMSP 5D-3 F16 (USA 172) 
1 28054U 03048A   26160.81782502 -.00000007  00000+0  20057-4 0  9997
2 28054  98.9892 184.5972 0007392 159.4199 311.6886 14.14482521168449
METEOSAT-9 (MSG-2)      
1 28912U 05049B   26160.62618503  .00000137  00000+0  00000+0 0  9995
2 28912   9.3435  54.2400 0001676 350.0561 124.8038  1.00269150  6920
DMSP 5D-3 F17 (USA 191) 
1 29522U 06050A   26160.81571719  .00000023  00000+0  34027-4 0  9999
2 29522  98.7377 167.5366 0011309  78.3371 281.9071 14.14992089 11388
FENGYUN 3A              
1 32958U 08026A   26160.78751704  .00000065  00000+0  51344-4 0  9998
2 32958  98.6882 101.7592 0009275 143.2386 216.9428 14.19569664934352
GOES 14                 
1 35491U 09033A   26160.61225153 -.00000243  00000+0  00000+0 0  9995
2 35491   1.6694  83.1346 0001892   5.6894 175.7469  1.00113561  6516
DMSP 5D-3 F18 (USA 210) 
1 35951U 09057A   26160.78660352  .00000239  00000+0  14677-3 0  9997
2 35951  98.9034 141.5719 0009856 273.1266  86.8779 14.14892588858546
EWS-G2 (GOES 15)        
1 36411U 10008A   26160.82783397  .00000036  00000+0  00000+0 0  9993
2 36411   1.2564  82.9839 0005418  39.1001 137.7556  1.00275774 59568
COMS 1                  
1 36744U 10032A   26154.99142485 -.00000334  00000+0  00000+0 0  9999
2 36744   4.7750  75.5286 0001016   4.5847 297.3769  1.00270643 50953
FENGYUN 3B              
1 37214U 10059A   26160.95647316 -.00000223  00000+0 -91687-4 0  9991
2 37214  98.9625 206.9402 0021497 204.7958 254.1975 14.14839080806408
SUOMI NPP               
1 37849U 11061A   26160.93950324  .00000066  00000+0  52262-4 0  9992
2 37849  98.7953 101.8651 0001933  23.2135 336.9128 14.19515910757410
METEOSAT-10 (MSG-3)     
1 38552U 12035B   26160.34194074  .00000011  00000+0  00000+0 0  9991
2 38552   4.6521  61.0520 0001559 334.1792 345.8157  1.00275834 50778
METOP-B                 
1 38771U 12049A   26160.79853131  .00000085  00000+0  58867-4 0  9994
2 38771  98.6506 212.4449 0002666  36.9989 323.1372 14.21430681712216
INSAT-3D                
1 39216U 13038B   26160.79528437 -.00000322  00000+0  00000+0 0  9992
2 39216   1.9059  82.6340 0000731 316.1218 275.2297  1.00273084 47003
FENGYUN 3C              
1 39260U 13052A   26160.90578757  .00000077  00000+0  60141-4 0  9993
2 39260  98.4976 135.1151 0015593  47.4993 312.7497 14.15753363657538
METEOR-M 2              
1 40069U 14037A   26160.89542443  .00000247  00000+0  13211-3 0  9991
2 40069  98.5113 136.8919 0006963  62.2775 297.9109 14.21460250618285
HIMAWARI-8              
1 40267U 14060A   26159.84027778 -.00000259  00000+0  00000+0 0  9991
2 40267   0.0136 319.3355 0000818 138.5674 242.4936  1.00270961 42676
FENGYUN 2G              
1 40367U 14090A   26160.83345512 -.00000287  00000+0  00000+0 0  9996
2 40367   5.6193  72.9049 0003515 153.2834  71.6860  1.00276216 41926
METEOSAT-11 (MSG-4)     
1 40732U 15034A   26160.70022179  .00000081  00000+0  00000+0 0  9999
2 40732   3.1835  71.1527 0001718   6.4836  81.9753  1.00277998  7143
ELEKTRO-L 2             
1 41105U 15074A   26160.26557611 -.00000102  00000+0  00000+0 0  9998
2 41105   6.6730  70.6207 0001007 284.5070 343.6389  1.00271831 38427
SENTINEL-3A             
1 41335U 16011A   26160.85292806  .00000082  00000+0  51941-4 0  9993
2 41335  98.6249 228.3416 0001356 104.0625 256.0706 14.26737954537015
INSAT-3DR               
1 41752U 16054A   26160.85558627 -.00000059  00000+0  00000+0 0  9999
2 41752   0.0863  87.4311 0010483 186.7861   6.0052  1.00270453 35749
HIMAWARI-9              
1 41836U 16064A   26160.79745105 -.00000257  00000+0  00000+0 0  9995
2 41836   0.0312 161.3973 0000827 322.8357 201.7960  1.00272052 35133
GOES 16                 
1 41866U 16071A   26160.67756544 -.00000074  00000+0  00000+0 0  9999
2 41866   0.3205  85.6006 0000373 313.1680 358.5327  1.00270485 35027
FENGYUN 4A              
1 41882U 16077A   26160.29508830 -.00000340  00000+0  00000+0 0  9990
2 41882   2.3018  80.3704 0008327 151.5209 255.7921  1.00273462 34850
CYGFM05                 
1 41884U 16078A   26160.80367913  .00023758  00000+0  32575-3 0  9998
2 41884  34.9574 309.4711 0006816  74.5123 285.6354 15.56342667527605
CYGFM04                 
1 41885U 16078B   26160.66916469  .00028456  00000+0  32555-3 0  9997
2 41885  34.9327 278.4264 0005974 120.8097 239.3217 15.61092573527821
CYGFM02                 
1 41886U 16078C   26160.68409435  .00033566  00000+0  34208-3 0  9995
2 41886  34.9407 273.0796 0006942 122.4427 237.6971 15.64013736527996
CYGFM01                 
1 41887U 16078D   26160.73147347  .00023606  00000+0  31578-3 0  9994
2 41887  34.9405 311.0664 0006690  66.4432 293.6994 15.57003768527549
CYGFM08                 
1 41888U 16078E   26160.70363903  .00026805  00000+0  32440-3 0  9993
2 41888  34.9433 291.0253 0007808 101.8589 258.3012 15.59624204527805
CYGFM07                 
1 41890U 16078G   26160.66325436  .00026028  00000+0  31399-3 0  9999
2 41890  34.9448 279.6430 0006384 120.0054 240.1305 15.59724675527820
CYGFM03                 
1 41891U 16078H   26160.69822501  .00026223  00000+0  31642-3 0  9996
2 41891  34.9403 281.3494 0005884 106.3589 253.7783 15.59720389527802
