OBJECT_NAME,OBJECT_ID,EPOCH,MEAN_MOTION,ECCENTRICITY,INCLINATION,RA_OF_ASC_NODE,ARG_OF_PERICENTER,MEAN_ANOMALY,EPHEMERIS_TYPE,CLASSIFICATION_TYPE,NORAD_CAT_ID,ELEMENT_SET_NO,REV_AT_EPOCH,BSTAR,MEAN_MOTION_DOT,MEAN_MOTION_DDOT
DMSP 5D-3 F16 (USA 172),2003-048A,2026-06-09T19:37:40.081728,14.14482521,.00073925,98.9892,184.5972,159.4199,311.6886,0,U,28054,999,16844,.20057495E-4,-.7E-7,0
METEOSAT-9 (MSG-2),2005-049B,2026-06-09T15:01:42.386592,1.00269150,.00016766,9.3435,54.2400,350.0561,124.8038,0,U,28912,999,692,0,.137E-5,0
DMSP 5D-3 F17 (USA 191),2006-050A,2026-06-09T19:34:37.965216,14.14992089,.00113093,98.7377,167.5366,78.3371,281.9071,0,U,29522,999,1138,.34026707E-4,.23E-6,0
FENGYUN 3A,2008-026A,2026-06-09T18:54:01.472256,14.19569664,.00092753,98.6882,101.7592,143.2386,216.9428,0,U,32958,999,93435,.51343638E-4,.65E-6,0
GOES 14,2009-033A,2026-06-09T14:41:38.532192,1.00113561,.00018926,1.6694,83.1346,5.6894,175.7469,0,U,35491,999,651,0,-.243E-5,0
DMSP 5D-3 F18 (USA 210),2009-057A,2026-06-09T18:52:42.544128,14.14892588,.00098565,98.9034,141.5719,273.1266,86.8779,0,U,35951,999,85854,.14676984E-3,.239E-5,0
EWS-G2 (GOES 15),2010-008A,2026-06-09T19:52:04.855008,1.00275774,.00054184,1.2564,82.9839,39.1001,137.7556,0,U,36411,999,5956,0,.36E-6,0
COMS 1,2010-032A,2026-06-03T23:47:39.107040,1.00270643,.0001016,4.7750,75.5286,4.5847,297.3769,0,U,36744,999,5095,0,-.334E-5,0
FENGYUN 3B,2010-059A,2026-06-09T22:57:19.281024,14.14839080,.00214972,98.9625,206.9402,204.7958,254.1975,0,U,37214,999,80640,-.91687302E-4,-.223E-5,0
SUOMI NPP,2011-061A,2026-06-09T22:32:53.079936,14.19515910,.00019336,98.7953,101.8651,23.2135,336.9128,0,U,37849,999,75741,.52262431E-4,.66E-6,0
METEOSAT-10 (MSG-3),2012-035B,2026-06-09T08:12:23.679936,1.00275834,.00015594,4.6521,61.0520,334.1792,345.8157,0,U,38552,999,5077,0,.11E-6,0
METOP-B,2012-049A,2026-06-09T19:09:53.105184,14.21430681,.00026668,98.6506,212.4449,36.9989,323.1372,0,U,38771,999,71221,.58867067E-4,.85E-6,0
INSAT-3D,2013-038B,2026-06-09T19:05:12.569568,1.00273084,.00007316,1.9059,82.6340,316.1218,275.2297,0,U,39216,999,4700,0,-.322E-5,0
FENGYUN 3C,2013-052A,2026-06-09T21:44:20.046048,14.15753363,.00155934,98.4976,135.1151,47.4993,312.7497,0,U,39260,999,65753,.60141457E-4,.77E-6,0
METEOR-M 2,2014-037A,2026-06-09T21:29:24.670752,14.21460250,.00069636,98.5113,136.8919,62.2775,297.9109,0,U,40069,999,61828,.13211171E-3,.247E-5,0
HIMAWARI-8,2014-060A,2026-06-08T20:10:00.000192,1.00270961,.00008182,0.0136,319.3355,138.5674,242.4936,0,U,40267,999,4267,0,-.259E-5,0
FENGYUN 2G,2014-090A,2026-06-09T20:00:10.522368,1.00276216,.00035152,5.6193,72.9049,153.2834,71.6860,0,U,40367,999,4192,0,-.287E-5,0
METEOSAT-11 (MSG-4),2015-034A,2026-06-09T16:48:19.162656,1.00277998,.00017185,3.1835,71.1527,6.4836,81.9753,0,U,40732,999,714,0,.81E-6,0
ELEKTRO-L 2,2015-074A,2026-06-09T06:22:25.775904,1.00271831,.0001007,6.6730,70.6207,284.5070,343.6389,0,U,41105,999,3842,0,-.102E-5,0
SENTINEL-3A,2016-011A,2026-06-09T20:28:12.984384,14.26737954,.00013561,98.6249,228.3416,104.0625,256.0706,0,U,41335,999,53701,.51941394E-4,.82E-6,0
INSAT-3DR,2016-054A,2026-06-09T20:32:02.653728,1.00270453,.00104835,0.0863,87.4311,186.7861,6.0052,0,U,41752,999,3574,0,-.59E-6,0
HIMAWARI-9,2016-064A,2026-06-09T19:08:19.770720,1.00272052,.0000827,0.0312,161.3973,322.8357,201.7960,0,U,41836,999,3513,0,-.257E-5,0
GOES 16,2016-071A,2026-06-09T16:15:41.654016,1.00270485,.00003733,0.3205,85.6006,313.1680,358.5327,0,U,41866,999,3502,0,-.74E-6,0
FENGYUN 4A,2016-077A,2026-06-09T07:04:55.629120,1.00273462,.0008327,2.3018,80.3704,151.5209,255.7921,0,U,41882,999,3485,0,-.34E-5,0
CYGFM05,2016-078A,2026-06-09T19:17:17.876832,15.56342667,.0006816,34.9574,309.4711,74.5123,285.6354,0,U,41884,999,52760,.32574937E-3,.23758E-3,0
CYGFM04,2016-078B,2026-06-09T16:03:35.829216,15.61092573,.00059745,34.9327,278.4264,120.8097,239.3217,0,U,41885,999,52782,.32555157E-3,.28456E-3,0
CYGFM02,2016-078C,2026-06-09T16:25:05.751840,15.64013736,.00069429,34.9407,273.0796,122.4427,237.6971,0,U,41886,999,52799,.34208326E-3,.33566E-3,0
CYGFM01,2016-078D,2026-06-09T17:33:19.307808,15.57003768,.00066904,34.9405,311.0664,66.4432,293.6994,0,U,41887,999,52754,.31578164E-3,.23606E-3,0
CYGFM08,2016-078E,2026-06-09T16:53:14.412192,15.59624204,.00078083,34.9433,291.0253,101.8589,258.3012,0,U,41888,999,52780,.32440187E-3,.26805E-3,0
CYGFM07,2016-078G,2026-06-09T15:55:05.176704,15.59724675,.00063842,34.9448,279.6430,120.0054,240.1305,0,U,41890,999,52782,.31399299E-3,.26028E-3,0
CYGFM03,2016-078H,2026-06-09T16:45:26.640864,15.59720389,.00058841,34.9403,281.3494,106.3589,253.7783,0,U,41891,999,52780,.31642222E-3,.26223E-3,0
